[{"OBJECT_NAME":"TIANMU-1 10","OBJECT_ID":"2023-101D","EPOCH":"2026-03-09T23:06:46.939392","MEAN_MOTION":15.2921896,"ECCENTRICITY":0.00069292,"INCLINATION":97.2749,"RA_OF_ASC_NODE":122.1027,"ARG_OF_PERICENTER":133.6162,"MEAN_ANOMALY":226.5654,"EPHEMERIS_TYPE":0,"CLASSIFICATION_TYPE":"U","NORAD_CAT_ID":57402,"ELEMENT_SET_NO":999,"REV_AT_EPOCH":14647,"BSTAR":0.00032238884,"MEAN_MOTION_DOT":9.075e-5,"MEAN_MOTION_DDOT":0},{"OBJECT_NAME":"STARLINK-35516","OBJECT_ID":"2025-225J","EPOCH":"2026-03-09T14:01:02.415936","MEAN_MOTION":15.30190916,"ECCENTRICITY":9.85e-5,"INCLINATION":53.1603,"RA_OF_ASC_NODE":166.0504,"ARG_OF_PERICENTER":71.0768,"MEAN_ANOMALY":289.0339,"EPHEMERIS_TYPE":0,"CLASSIFICATION_TYPE":"U","NORAD_CAT_ID":65918,"ELEMENT_SET_NO":999,"REV_AT_EPOCH":2439,"BSTAR":0.0008875,"MEAN_MOTION_DOT":0.00026011,"MEAN_MOTION_DDOT":0}]
